start=new Date('2023-05-12T00:00:00.000Z').valueOf();
sats=[{"EPOCH":"2023-05-10T23:15:09.208512","BSTAR":"0.00010098000000","MEAN_MOTION_DOT":"0.00001320","APOAPSIS":"540.464","REF_FRAME":"TEME","MEAN_MOTION":"15.08852788","TLE_LINE2":"2 53578  53.2186  14.3048 0001095  96.3897 263.7220 15.08852788 40392","SITE":"AFETR","PERIAPSIS":"538.949","MEAN_MOTION_DDOT":"0.0000000000000","CLASSIFICATION_TYPE":"U","MEAN_ELEMENT_THEORY":"SGP4","LAUNCH_DATE":"2022-08-19","PERIOD":"95.437","ELEMENT_SET_NO":"999","NORAD_CAT_ID":"53578","OBJECT_NAME":"STARLINK-4556","ARG_OF_PERICENTER":"96.3897","TLE_LINE1":"1 53578U 22101BD  23130.96885658  .00001320  00000-0  10098-3 0  9995","CENTER_NAME":"EARTH","TIME_SYSTEM":"UTC","DECAY_DATE":null,"MEAN_ANOMALY":"263.7220","RCS_SIZE":"LARGE","GP_ID":"231602691","FILE":"3905210","COUNTRY_CODE":"US","INCLINATION":"53.2186","EPHEMERIS_TYPE":"0","RA_OF_ASC_NODE":"14.3048","SEMIMAJOR_AXIS":"6917.841","OBJECT_TYPE":"PAYLOAD","REV_AT_EPOCH":"4039","ECCENTRICITY":"0.00010950","OBJECT_ID":"2022-101BD"},{"DECAY_DATE":null,"MEAN_ANOMALY":"268.3199","RCS_SIZE":"LARGE","GP_ID":"231607045","FILE":"3905214","COUNTRY_CODE":"US","INCLINATION":"53.2174","RA_OF_ASC_NODE":"14.2815","EPHEMERIS_TYPE":"0","SEMIMAJOR_AXIS":"6917.861","OBJECT_TYPE":"PAYLOAD","REV_AT_EPOCH":"4039","OBJECT_ID":"2022-101BE","ECCENTRICITY":"0.00013260","OBJECT_NAME":"STARLINK-4580","ARG_OF_PERICENTER":"91.7945","TLE_LINE1":"1 53579U 22101BE  23130.96517378 -.00000104  00000-0  11536-4 0  9996","CENTER_NAME":"EARTH","TIME_SYSTEM":"UTC","PERIAPSIS":"538.809","SITE":"AFETR","MEAN_MOTION_DDOT":"0.0000000000000","CLASSIFICATION_TYPE":"U","MEAN_ELEMENT_THEORY":"SGP4","LAUNCH_DATE":"2022-08-19","PERIOD":"95.437","ELEMENT_SET_NO":"999","NORAD_CAT_ID":"53579","EPOCH":"2023-05-10T23:09:51.014592","BSTAR":"0.00001153600000","MEAN_MOTION_DOT":"-0.00000104","REF_FRAME":"TEME","APOAPSIS":"540.644","MEAN_MOTION":"15.08846192","TLE_LINE2":"2 53579  53.2174  14.2815 0001326  91.7945 268.3199 15.08846192 40399"},{"EPOCH":"2023-05-11T21:21:23.582592","MEAN_MOTION_DOT":"0.00000888","BSTAR":"0.00007387000000","APOAPSIS":"540.499","REF_FRAME":"TEME","MEAN_MOTION":"15.08842776","TLE_LINE2":"2 53588  53.2159 200.7870 0001102  90.8465 269.2654 15.08842776 40170","CLASSIFICATION_TYPE":"U","MEAN_MOTION_DDOT":"0.0000000000000","PERIAPSIS":"538.975","SITE":"AFETR","LAUNCH_DATE":"2022-08-28","PERIOD":"95.437","MEAN_ELEMENT_THEORY":"SGP4","ELEMENT_SET_NO":"999","NORAD_CAT_ID":"53588","ARG_OF_PERICENTER":"90.8465","OBJECT_NAME":"STARLINK-4691","TLE_LINE1":"1 53588U 22104A   23131.88985628  .00000888  00000-0  73870-4 0  9995","CENTER_NAME":"EARTH","TIME_SYSTEM":"UTC","FILE":"3905576","GP_ID":"231638750","RCS_SIZE":"LARGE","DECAY_DATE":null,"MEAN_ANOMALY":"269.2654","OBJECT_TYPE":"PAYLOAD","EPHEMERIS_TYPE":"0","RA_OF_ASC_NODE":"200.7870","SEMIMAJOR_AXIS":"6917.872","INCLINATION":"53.2159","COUNTRY_CODE":"US","OBJECT_ID":"2022-104A","ECCENTRICITY":"0.00011020","REV_AT_EPOCH":"4017"},{"MEAN_ELEMENT_THEORY":"SGP4","PERIOD":"95.437","LAUNCH_DATE":"2022-08-28","SITE":"AFETR","PERIAPSIS":"539.097","MEAN_MOTION_DDOT":"0.0000000000000","CLASSIFICATION_TYPE":"U","NORAD_CAT_ID":"53589","ELEMENT_SET_NO":"999","BSTAR":"0.00027921000000","MEAN_MOTION_DOT":"0.00004160","EPOCH":"2023-05-11T11:22:33.026304","MEAN_MOTION":"15.08847542","TLE_LINE2":"2 53589  53.2146 202.4566 0000904  67.9223 292.1865 15.08847542 39964","REF_FRAME":"TEME","APOAPSIS":"540.348","COUNTRY_CODE":"US","INCLINATION":"53.2146","EPHEMERIS_TYPE":"0","SEMIMAJOR_AXIS":"6917.857","RA_OF_ASC_NODE":"202.4566","OBJECT_TYPE":"PAYLOAD","MEAN_ANOMALY":"292.1865","DECAY_DATE":null,"RCS_SIZE":"LARGE","GP_ID":"231603693","FILE":"3905210","REV_AT_EPOCH":"3996","ECCENTRICITY":"0.00009040","OBJECT_ID":"2022-104B","TLE_LINE1":"1 53589U 22104B   23131.47399336  .00004160  00000-0  27921-3 0  9998","OBJECT_NAME":"STARLINK-4673","ARG_OF_PERICENTER":"67.9223","TIME_SYSTEM":"UTC","CENTER_NAME":"EARTH"},{"ELEMENT_SET_NO":"999","NORAD_CAT_ID":"53590","CLASSIFICATION_TYPE":"U","MEAN_MOTION_DDOT":"0.0000000000000","PERIAPSIS":"539.334","SITE":"AFETR","PERIOD":"95.437","LAUNCH_DATE":"2022-08-28","MEAN_ELEMENT_THEORY":"SGP4","REF_FRAME":"TEME","APOAPSIS":"540.096","TLE_LINE2":"2 53590  53.2154 200.7651 0000551  68.2569 291.8481 15.08849860 40042","MEAN_MOTION":"15.08849860","EPOCH":"2023-05-11T21:16:05.521728","MEAN_MOTION_DOT":"0.00005544","BSTAR":"0.00036603000000","OBJECT_ID":"2022-104C","ECCENTRICITY":"0.00005510","REV_AT_EPOCH":"4004","FILE":"3905576","GP_ID":"231637748","RCS_SIZE":"LARGE","DECAY_DATE":null,"MEAN_ANOMALY":"291.8481","OBJECT_TYPE":"PAYLOAD","SEMIMAJOR_AXIS":"6917.850","RA_OF_ASC_NODE":"200.7651","EPHEMERIS_TYPE":"0","INCLINATION":"53.2154","COUNTRY_CODE":"US","CENTER_NAME":"EARTH","TIME_SYSTEM":"UTC","ARG_OF_PERICENTER":"68.2569","OBJECT_NAME":"STARLINK-4689","TLE_LINE1":"1 53590U 22104C   23131.88617502  .00005544  00000-0  36603-3 0  9997"},{"MEAN_MOTION_DDOT":"0.0000000000000","SITE":"AFETR","PERIAPSIS":"538.902","CLASSIFICATION_TYPE":"U","MEAN_ELEMENT_THEORY":"SGP4","PERIOD":"95.438","LAUNCH_DATE":"2022-08-28","ELEMENT_SET_NO":"999","NORAD_CAT_ID":"53591","EPOCH":"2023-05-11T21:10:46.939872","MEAN_MOTION_DOT":"0.00002541","BSTAR":"0.00017765000000","APOAPSIS":"540.589","REF_FRAME":"TEME","TLE_LINE2":"2 53591  53.2149 200.7411 0001219 108.2968 251.8157 15.08839926 40049","MEAN_MOTION":"15.08839926","RCS_SIZE":"LARGE","MEAN_ANOMALY":"251.8157","DECAY_DATE":null,"FILE":"3905576","GP_ID":"231638500","INCLINATION":"53.2149","COUNTRY_CODE":"US","OBJECT_TYPE":"PAYLOAD","EPHEMERIS_TYPE":"0","RA_OF_ASC_NODE":"200.7411","SEMIMAJOR_AXIS":"6917.881","REV_AT_EPOCH":"4004","ECCENTRICITY":"0.00012190","OBJECT_ID":"2022-104D","OBJECT_NAME":"STARLINK-4674","ARG_OF_PERICENTER":"108.2968","TLE_LINE1":"1 53591U 22104D   23131.88248773  .00002541  00000-0  17765-3 0  9990","CENTER_NAME":"EARTH","TIME_SYSTEM":"UTC"},{"REF_FRAME":"TEME","APOAPSIS":"540.684","MEAN_MOTION":"15.08836059","TLE_LINE2":"2 53592  53.2159 202.5108 0001339  99.7331 260.3812 15.08836059 38948","EPOCH":"2023-05-11T11:34:32.966400","BSTAR":"-0.00003887800000","MEAN_MOTION_DOT":"-0.00000907","ELEMENT_SET_NO":"999","NORAD_CAT_ID":"53592","PERIAPSIS":"538.831","SITE":"AFETR","MEAN_MOTION_DDOT":"0.0000000000000","CLASSIFICATION_TYPE":"U","MEAN_ELEMENT_THEORY":"SGP4","LAUNCH_DATE":"2022-08-28","PERIOD":"95.438","CENTER_NAME":"EARTH","TIME_SYSTEM":"UTC","OBJECT_NAME":"STARLINK-4672","ARG_OF_PERICENTER":"99.7331","TLE_LINE1":"1 53592U 22104E   23131.48232600 -.00000907  00000-0 -38878-4 0  9994","REV_AT_EPOCH":"3894","ECCENTRICITY":"0.00013390","OBJECT_ID":"2022-104E","DECAY_DATE":null,"MEAN_ANOMALY":"260.3812","RCS_SIZE":"LARGE","GP_ID":"231578977","FILE":"3905190","COUNTRY_CODE":"US","INCLINATION":"53.2159","EPHEMERIS_TYPE":"0","SEMIMAJOR_AXIS":"6917.892","RA_OF_ASC_NODE":"202.5108","OBJECT_TYPE":"PAYLOAD"},{"CENTER_NAME":"EARTH","TIME_SYSTEM":"UTC","OBJECT_NAME":"STARLINK-4671","ARG_OF_PERICENTER":"103.7572","TLE_LINE1":"1 53593U 22104F   23131.47767636  .00001756  00000-0  12838-3 0  9994","REV_AT_EPOCH":"3996","ECCENTRICITY":"0.00011690","OBJECT_ID":"2022-104F","MEAN_ANOMALY":"256.3550","DECAY_DATE":null,"RCS_SIZE":"LARGE","GP_ID":"231637000","FILE":"3905576","COUNTRY_CODE":"US","INCLINATION":"53.2160","EPHEMERIS_TYPE":"0","RA_OF_ASC_NODE":"202.4798","SEMIMAJOR_AXIS":"6917.857","OBJECT_TYPE":"PAYLOAD","REF_FRAME":"TEME","APOAPSIS":"540.531","TLE_LINE2":"2 53593  53.2160 202.4798 0001169 103.7572 256.3550 15.08847677 39964","MEAN_MOTION":"15.08847677","EPOCH":"2023-05-11T11:27:51.237504","BSTAR":"0.00012838000000","MEAN_MOTION_DOT":"0.00001756","ELEMENT_SET_NO":"999","NORAD_CAT_ID":"53593","PERIAPSIS":"538.913","SITE":"AFETR","MEAN_MOTION_DDOT":"0.0000000000000","CLASSIFICATION_TYPE":"U","MEAN_ELEMENT_THEORY":"SGP4","PERIOD":"95.437","LAUNCH_DATE":"2022-08-28"},{"BSTAR":"0.00020989000000","MEAN_MOTION_DOT":"0.00003055","EPOCH":"2023-05-11T11:11:56.049216","TLE_LINE2":"2 53594  53.2156 202.4111 0001279  94.4451 265.6687 15.08849608 40101","MEAN_MOTION":"15.08849608","REF_FRAME":"TEME","APOAPSIS":"540.601","MEAN_ELEMENT_THEORY":"SGP4","LAUNCH_DATE":"2022-08-28","PERIOD":"95.437","PERIAPSIS":"538.831","SITE":"AFETR","MEAN_MOTION_DDOT":"0.0000000000000","CLASSIFICATION_TYPE":"U","NORAD_CAT_ID":"53594","ELEMENT_SET_NO":"999","TLE_LINE1":"1 53594U 22104G   23131.46662094  .00003055  00000-0  20989-3 0  9996","OBJECT_NAME":"STARLINK-4681","ARG_OF_PERICENTER":"94.4451","TIME_SYSTEM":"UTC","CENTER_NAME":"EARTH","COUNTRY_CODE":"US","INCLINATION":"53.2156","SEMIMAJOR_AXIS":"6917.851","RA_OF_ASC_NODE":"202.4111","EPHEMERIS_TYPE":"0","OBJECT_TYPE":"PAYLOAD","DECAY_DATE":null,"MEAN_ANOMALY":"265.6687","RCS_SIZE":"LARGE","GP_ID":"231603942","FILE":"3905210","REV_AT_EPOCH":"4010","ECCENTRICITY":"0.00012790","OBJECT_ID":"2022-104G"},{"CLASSIFICATION_TYPE":"U","PERIAPSIS":"539.115","SITE":"AFETR","MEAN_MOTION_DDOT":"0.0000000000000","LAUNCH_DATE":"2022-08-28","PERIOD":"95.439","MEAN_ELEMENT_THEORY":"SGP4","ELEMENT_SET_NO":"999","NORAD_CAT_ID":"53595","EPOCH":"2023-05-11T11:17:16.868832","BSTAR":"-0.00028393000000","MEAN_MOTION_DOT":"-0.00004800","REF_FRAME":"TEME","APOAPSIS":"540.540","TLE_LINE2":"2 53595  53.2163 202.4338 0001030  77.7666 282.3441 15.08813156 39356","MEAN_MOTION":"15.08813156","GP_ID":"231607264","FILE":"3905232","DECAY_DATE":null,"MEAN_ANOMALY":"282.3441","RCS_SIZE":"LARGE","RA_OF_ASC_NODE":"202.4338","EPHEMERIS_TYPE":"0","SEMIMAJOR_AXIS":"6917.962","OBJECT_TYPE":"PAYLOAD","COUNTRY_CODE":"US","INCLINATION":"53.2163","ECCENTRICITY":"0.00010300","OBJECT_ID":"2022-104H","REV_AT_EPOCH":"3935","ARG_OF_PERICENTER":"77.7666","OBJECT_NAME":"STARLINK-4684","TLE_LINE1":"1 53595U 22104H   23131.47033413 -.00004800  00000-0 -28393-3 0  9993","CENTER_NAME":"EARTH","TIME_SYSTEM":"UTC"}];
